INTELSAT 9 (IS-9)       
1 26451U 00043A   25097.47862604 -.00000023  00000+0  00000+0 0  9999
2 26451   9.4309  53.1233 0003637 338.5195  42.8888  1.00272507 39773
INTELSAT 10 (IS-10)     
1 26766U 01019A   25097.47862604 -.00000018  00000+0  00000+0 0  9996
2 26766   8.0326  63.6876 0004082 310.3542  60.3489  1.00273381 41253
INTELSAT 901 (IS-901)   
1 26824U 01024A   25096.88281103 -.00000168  00000+0  00000+0 0  9996
2 26824   0.1127  96.3543 0002929 291.8618  67.3798  0.98814867 18608
INTELSAT 902 (IS-902)   
1 26900U 01039A   25097.24135123 -.00000295  00000+0  00000+0 0  9999
2 26900   5.0130  77.0888 0004490 300.3107 215.1524  1.00270084 86328
INTELSAT 904 (IS-904)   
1 27380U 02007A   25097.57304080 -.00000226  00000+0  00000+0 0  9998
2 27380   5.8280  74.3777 0003216 305.2680 353.2192  1.00271473 84727
DIRECTV 5 (TEMPO 1)     
1 27426U 02023A   25097.51502891 -.00000069  00000+0  00000+0 0  9996
2 27426   3.7622  80.7471 0003476 302.8352 247.7356  1.00272525 83934
INTELSAT 905 (IS-905)   
1 27438U 02027A   25097.01676551 -.00000044  00000+0  00000+0 0  9996
2 27438   5.6546  75.0211 0005824 293.5491  90.8919  0.99737358 46995
GALAXY 3C (G-3C)        
1 27445U 02030A   25097.51806972 -.00000165  00000+0  00000+0 0  9999
2 27445   2.6066  83.5408 0002605  53.1827 150.9573  1.00272134 42120
INTELSAT 906 (IS-906)   
1 27513U 02041A   25097.54960729  .00000001  00000+0  00000+0 0  9999
2 27513   4.6926  78.2801 0002500 301.4091  78.3925  1.00274231 82664
GALAXY 23 (G-23)        
1 27854U 03034A   25097.58429064 -.00000001  00000+0  00000+0 0  9997
2 27854   2.0695  85.1055 0002741 298.1590 262.2880  1.00271692 79374
GALAXY 13 (HORIZONS-1)  
1 27954U 03044A   25097.57855653  .00000117  00000+0  00000+0 0  9992
2 27954   0.2903  91.0166 0002335 284.1381 239.2166  1.00270117 42202
INTELSAT 10-02          
1 28358U 04022A   25097.49558775 -.00000027  00000+0  00000+0 0  9995
2 28358   0.0152 147.6148 0000853 208.5903  17.2310  1.00270811 76186
XM-3 (RHYTHM)           
1 28626U 05008A   25097.51972045 -.00000215  00000+0  00000+0 0  9990
2 28626   0.0360 265.8356 0001679 135.7311 255.2271  1.00271548 38254
DIRECTV 8               
1 28659U 05019A   25097.58472503 -.00000014  00000+0  00000+0 0  9996
2 28659   0.0155 242.2846 0002949 133.2322 272.0260  1.00272795 72709
GALAXY 28 (G-28)        
1 28702U 05022A   25097.51928605 -.00000201  00000+0  00000+0 0  9999
2 28702   2.1739  84.3423 0002804 248.1906 321.7411  1.00272607 72453
GALAXY 16 (G-16)        
1 29236U 06023A   25097.50249860 -.00000142  00000+0  00000+0 0  9996
2 29236   0.0149 183.2279 0002643 190.8871 263.7807  1.00272039 68606
DIRECTV 9S              
1 29494U 06043A   25097.51676652 -.00000127  00000+0  00000+0 0  9991
2 29494   1.2949  86.1859 0003050 293.0261 261.6444  1.00271619 47019
GALAXY 17 (G-17)        
1 31307U 07016B   25097.58239111 -.00000220  00000+0  00000+0 0  9994
2 31307   1.8682  85.4502 0002774 219.8794  15.4203  1.00272045 65439
DIRECTV 10              
1 31862U 07032A   25097.50551295 -.00000118  00000+0  00000+0 0  9996
2 31862   0.0305 354.9933 0000354 295.3071 344.8983  1.00270911 41224
INTELSAT 11 (IS-11)     
1 32253U 07044B   25097.58489880  .00000055  00000+0  00000+0 0  9991
2 32253   2.4295  84.0374 0001520 223.3177 341.5155  0.99044764 64139
HORIZONS-2              
1 32388U 07063B   25097.23516821 -.00000268  00000+0  00000+0 0  9996
2 32388   1.4757  86.0226 0002200 300.8088 179.7749  1.00273680 63443
DIRECTV 11              
1 32729U 08013A   25097.51720093 -.00000141  00000+0  00000+0 0  9990
2 32729   0.0395  33.2703 0000155 210.1018  39.6614  1.00270390 41224
GALAXY 18 (G-18)        
1 32951U 08024A   25097.58385623  .00000010  00000+0  00000+0 0  9996
2 32951   0.0202 181.9089 0003086 205.1485 256.2219  1.00271541 41489
INTELSAT 25 (IS-25)     
1 33153U 08034A   25097.45925172 -.00000238  00000+0  00000+0 0  9990
2 33153   1.5830  85.6923 0003011 291.1369 312.9711  1.00271453 61322
GALAXY 19 (G-19)        
1 33376U 08045A   25097.51763532 -.00000155  00000+0  00000+0 0  9994
2 33376   0.0354 263.2549 0002649 118.6032 263.5111  1.00275639 60535
FM-5                    
1 35493U 09034A   25097.58239111 -.00000215  00000+0  00000+0 0  9990
2 35493   0.0315 266.9688 0002935 295.7150 116.9195  1.00270783 42273
INTELSAT 14 (IS-14)     
1 36097U 09064A   25097.51225343 -.00000289  00000+0  00000+0 0  9990
2 36097   0.0426  39.3367 0002419 336.5635 319.5381  1.00271487 56233
INTELSAT 15 (IS-15)     
1 36106U 09067A   25097.55377755 -.00000200  00000+0  00000+0 0  9996
2 36106   0.0192 192.7411 0002385 191.7131  96.1278  1.00268927 36867
DIRECTV 12              
1 36131U 09075A   25097.54003155 -.00000119  00000+0  00000+0 0  9991
2 36131   0.0315  54.8456 0000575 341.9698 250.9228  1.00270769 42189
INTELSAT 16 (IS-16)     
1 36397U 10006A   25097.52180558 -.00000260  00000+0  00000+0 0  9999
2 36397   0.0147 168.1380 0001971 222.9109 276.6391  1.00268271 55351
XM-5                    
1 37185U 10053A   25097.58542008 -.00000038  00000+0  00000+0 0  9998
2 37185   0.0316 268.7797 0002097 292.6933  90.1741  1.00270011 53118
INTELSAT 17 (IS-17)     
1 37238U 10065B   25097.58927947 -.00000018  00000+0  00000+0 0  9997
2 37238   0.0259 235.5522 0002767 159.1614  79.5225  1.00272563 48888
INTELSAT 28 (IS-28)     
1 37392U 11016A   25097.46029429 -.00000226  00000+0  00000+0 0  9991
2 37392   0.6788  88.2868 0004012 286.4884 320.6152  1.00143515 48913
INTELSAT 18 (IS-18)     
1 37834U 11056A   25097.53169573  .00000037  00000+0  00000+0 0  9998
2 37834   0.0017 175.3177 0001923 197.1693 194.9495  1.00271427 49443
INTELSAT 22 (IS-22)     
1 38098U 12011A   25097.55117115 -.00000074  00000+0  00000+0 0  9992
2 38098   0.0147 139.7782 0001826 255.4497  71.3493  1.00270737  2828
INTELSAT 19 (IS-19)     
1 38356U 12030A   25097.58516965 -.00000072  00000+0  00000+0 0  9997
2 38356   0.0172 214.9372 0003096 167.3379 190.4630  1.00272889 46076
INTELSAT 20 (IS-20)     
1 38740U 12043A   25097.55047610 -.00000040  00000+0  00000+0 0  9996
2 38740   0.0199 127.6770 0002808  54.7725 280.2772  1.00271231 46387
INTELSAT 21 (IS-21)     
1 38749U 12045A   25097.52536767 -.00000300  00000+0  00000+0 0  9999
2 38749   0.0208 257.3943 0001392  97.7442 332.0196  1.00271745 46151
INTELSAT 23 (IS-23)     
1 38867U 12057A   25097.45499459 -.00000300  00000+0  00000+0 0  9991
2 38867   0.0182 171.7164 0001010 169.2310 325.8010  1.00270416 45588
FM-6                    
1 39360U 13058A   25097.58524632 -.00000032  00000+0  00000+0 0  9990
2 39360   0.0187 254.5862 0000656 236.7648 159.2837  1.00268660 41698
INTELSAT 30 (IS-30)     
1 40271U 14062A   25093.16217558 -.00000161  00000+0  00000+0 0  9998
2 40271   0.0077 139.2391 0000649 272.8718 102.9474  1.00270701 38356
DIRECTV 14              
1 40333U 14078B   25097.51720093 -.00000141  00000+0  00000+0 0  9998
2 40333   0.0241 300.9352 0000356 273.8312  68.2145  1.00273471 37689
DIRECTV 15              
1 40663U 15026A   25097.51650588 -.00000118  00000+0  00000+0 0  9993
2 40663   0.0393  81.5887 0000539 154.0000  43.5128  1.00270943 36097
SKY MEXICO-1            
1 40664U 15026B   25097.52128431 -.00000250  00000+0  00000+0 0  9999
2 40664   0.0246  21.7829 0002544  17.6868 265.4475  1.00271127 36085
INTELSAT 34 (IS-34)     
1 40874U 15039A   25097.51781113 -.00000301  00000+0  00000+0 0  9994
2 40874   0.0151 251.0790 0000923  15.2172  60.6505  1.00272276 35252
INTELSAT 31 (IS-31)     
1 41581U 16035A   25097.51806972 -.00000166  00000+0  00000+0 0  9997
2 41581   0.0103 202.0274 0002350  27.5025  57.9360  1.00271388 32312
INTELSAT 36 (IS-36)     
1 41747U 16053A   25097.55047610 -.00000040  00000+0  00000+0 0  9992
2 41747   0.0121 215.3350 0001112  90.7652 156.6512  1.00270771 31580
INTELSAT 32E (IS-32E)   
1 41945U 17007B   25097.51225343 -.00000284  00000+0  00000+0 0  9999
2 41945   0.0162 123.4390 0000894 225.1093 348.7025  1.00271730 29853
INTELSAT 35E (IS-35E)   
1 42818U 17041A   25097.33947750 -.00000254  00000+0  00000+0 0  9997
2 42818   0.0234 114.5928 0001991 254.6405 274.3350  1.00270515 28443
INTELSAT 37E (IS-37E)   
1 42950U 17059A   25097.24769351 -.00000157  00000+0  00000+0 0  9994
2 42950   0.0176 235.0323 0001942 150.5244 241.3661  1.00272016 27697
AZERSPACE 2 (IS-38)     
1 43632U 18074A   25097.62448536  .00000121  00000+0  00000+0 0  9991
2 43632   0.0230 207.3932 0001562 160.8339  97.8373  1.00269409 24087
HORIZONS-3E             
1 43633U 18074B   25097.58516965 -.00000047  00000+0  00000+0 0  9997
2 43633   0.0158 200.0404 0001103 101.1444 274.5634  1.00270346 23970
AT&T T-16               
1 44333U 19034A   25097.51685340 -.00000131  00000+0  00000+0 0  9993
2 44333   0.0306  91.0457 0000933  93.4145  96.7714  1.00269216 21256
INTELSAT 39 (IS-39)     
1 44476U 19049B   25097.59674975  .00000018  00000+0  00000+0 0  9990
2 44476   0.0206 193.2845 0000495 326.3481 313.2505  1.00269147 20766
GALAXY 30 (G-30)        
1 46114U 20056C   25097.58350870  .00000021  00000+0  00000+0 0  9999
2 46114   0.0062  94.3435 0002071 288.4378 258.3580  1.00272507 16927
GALAXY 33 (G-33)        
1 54026U 22128A   25097.58194486  .00000064  00000+0  00000+0 0  9998
2 54026   0.0171 183.4137 0001901 191.1331 258.0526  1.00270938  9372
GALAXY 34 (G-34)        
1 54027U 22128B   25097.58272678  .00000043  00000+0  00000+0 0  9996
2 54027   0.0174 243.1194 0001416 132.9819 260.7734  1.00272591  9545
GALAXY 31 (G-31)        
1 54243U 22153A   25097.58429064 -.00000002  00000+0  00000+0 0  9993
2 54243   0.0105 192.3299 0001338 171.3625 281.7365  1.00271776  2769
GALAXY 32 (G-32)        
1 54244U 22153B   25096.01931178 -.00000190  00000+0  00000+0 0  9993
2 54244   0.0154 105.0557 0002931 257.2722 108.1607  1.00271030  8764
GALAXY 35 (G-35)        
1 54741U 22170A   25097.51841725 -.00000178  00000+0  00000+0 0  9994
2 54741   0.0145 180.7274 0001903 190.7071 278.1189  1.00271661  8525
GALAXY 36 (G-36)        
1 54742U 22170B   25097.51919917 -.00000201  00000+0  00000+0 0  9991
2 54742   0.0142 230.4147 0002262 183.1721 240.3419  1.00272460  8404
GALAXY 37 (G-37)        
1 57493U 23112A   25097.54832859  .00000033  00000+0  00000+0 0  9998
2 57493   0.0487  47.2820 0001972 321.6739 257.4845  1.00271928  6171
